OBJECT_NAME,OBJECT_ID,EPOCH,MEAN_MOTION,ECCENTRICITY,INCLINATION,RA_OF_ASC_NODE,ARG_OF_PERICENTER,MEAN_ANOMALY,EPHEMERIS_TYPE,CLASSIFICATION_TYPE,NORAD_CAT_ID,ELEMENT_SET_NO,REV_AT_EPOCH,BSTAR,MEAN_MOTION_DOT,MEAN_MOTION_DDOT
H-2A R/B,2006-002B,2026-06-16T06:19:31.425024,15.18050561,.0049582,98.2561,323.0084,265.5373,94.0193,0,U,28932,999,10938,.26984654E-3,.5588E-4,0
RESURS-DK 1,2006-021A,2026-06-16T04:13:27.997536,15.13215473,.00069318,69.9341,342.1698,292.7954,67.2480,0,U,29228,999,10242,.12094024E-3,.2045E-4,0
CZ-4B R/B,2006-046C,2026-06-16T00:00:20.045664,15.17776889,.00310075,97.5450,211.6108,286.9796,72.8040,0,U,29507,999,7495,.18206353E-3,.3652E-4,0
CZ-2C R/B,2007-010B,2026-06-16T06:50:23.409888,14.20276032,.00590776,98.4098,275.6800,8.7531,351.4662,0,U,31114,999,99371,.47864878E-4,.63E-6,0
COSMO-SKYMED 1,2007-023A,2026-06-16T06:23:13.224192,14.97095115,.00012544,97.8841,359.1140,99.9971,260.1392,0,U,31598,999,2965,.19174718E-3,.2152E-4,0
COSMOS 2428,2007-029A,2026-06-16T05:21:36.581184,14.12928265,.00071336,70.9370,356.5014,136.7476,223.4206,0,U,31792,999,97801,-.39496985E-4,-.121E-5,0
SL-16 R/B,2007-029B,2026-06-16T05:05:36.766176,14.14854787,.00023048,70.9768,325.2777,261.8401,270.6376,0,U,31793,999,97930,.98849237E-4,.143E-5,0
KORONAS-FOTON,2009-003A,2026-06-16T07:14:22.170336,15.45707361,.0011578,82.4282,173.1833,150.4858,209.7047,0,U,33504,999,96096,.18630942E-3,.9056E-4,0
CZ-2C R/B,2011-030B,2026-06-16T03:41:32.629632,14.81469274,.00531399,97.8655,122.5586,31.2689,341.5259,0,U,37731,999,80467,.1439047E-3,.11E-4,0
H-2A R/B,2012-025E,2026-06-15T22:51:58.673088,14.95714694,.00437168,98.4829,141.9966,353.4258,6.6382,0,U,38341,999,76290,.26821174E-3,.2973E-4,0
SHIJIAN-16 (SJ-16),2013-057A,2026-06-16T07:13:27.630336,14.92606022,.0016832,74.9726,358.3617,232.9456,127.0193,0,U,39358,999,68621,.10800746E-3,.1085E-4,0
SL-4 R/B,2014-021B,2026-06-15T19:58:43.847616,15.41930073,.00913059,51.6036,217.4086,101.0610,260.0660,0,U,39679,999,67140,.17704676E-3,.843E-4,0
ALOS-2,2014-029A,2026-06-16T06:14:18.982752,14.79467928,.00016433,97.9225,264.4363,92.6131,267.5268,0,U,39766,999,65144,.13364455E-3,.947E-5,0
YAOGAN-29,2015-069A,2026-06-16T07:13:02.863776,14.83084373,.00026371,98.0023,195.9320,56.1132,304.0332,0,U,41038,999,57049,.59753636E-4,.432E-5,0
ASTRO-H (HITOMI),2016-012A,2026-06-15T23:26:49.890912,15.10506251,.00097799,30.9996,82.0029,241.7566,118.2085,0,U,41337,999,56710,.12043237E-3,.2131E-4,0
HXMT (HUIYAN),2017-034A,2026-06-16T08:16:48.681696,15.18473601,.00304963,43.0125,187.7306,141.6446,218.6578,0,U,42758,999,49753,.12332059E-3,.2371E-4,0
SAOCOM 1A,2018-076A,2026-06-16T07:49:18.388992,14.82145731,.00015668,97.8875,354.0868,79.9870,280.1520,0,U,43641,999,41597,-.1980734E-4,-.21E-5,0
H-2A R/B,2018-084L,2026-06-16T06:52:22.336032,15.45124982,.00236094,98.8576,45.9796,43.6897,316.6210,0,U,43682,999,42098,.34987452E-3,.16636E-3,0
SAOCOM 1B,2020-059A,2026-06-16T06:56:56.813280,14.82147385,.00016246,97.8880,353.1460,85.3412,274.7986,0,U,46265,999,31335,.82719732E-4,.606E-5,0
CSS (TIANHE),2021-035A,2026-06-16T01:56:57.350976,15.60769173,.00074641,41.4696,328.7320,68.7189,291.4446,0,U,48274,999,29299,.23775334E-3,.20101E-3,0
COSMOS 2550,2021-056A,2026-06-16T07:21:47.545920,15.33822746,.00084085,67.1433,102.5691,268.7874,91.2317,0,U,48865,999,27858,.16351845E-3,.519E-4,0
CZ-2C R/B,2022-058K,2026-06-16T06:46:43.299840,15.61797731,.00325333,50.1832,168.2256,264.2394,95.4870,0,U,52794,999,22550,.37207774E-3,.33377E-3,0
CZ-2C R/B,2022-132E,2026-06-16T06:15:46.334880,15.71408405,.00161454,97.2897,174.2437,87.1204,273.1907,0,U,54039,999,20580,.42189784E-3,.54204E-3,0
GSLV R/B,2022-138AN,2026-06-16T07:34:41.687328,14.97253720,.00227391,87.3805,133.2768,146.5375,213.7299,0,U,54149,999,19868,.2241294E-3,.2637E-4,0
XRISM,2023-137A,2026-06-16T06:24:04.995072,15.12459575,.00079676,31.0033,5.5643,314.6443,45.3546,0,U,57800,999,15272,.23546523E-3,.4297E-4,0
ACS3,2024-077B,2026-06-16T06:32:17.234016,13.93905607,.00736404,97.1678,86.2645,64.3296,296.5453,0,U,59588,999,10791,.13159955E-1,.17775E-3,0
CZ-8A R/B,2025-231K,2026-06-15T22:25:02.161056,14.30154619,.0116481,50.0057,44.6477,219.5938,139.6427,0,U,66004,999,3476,.38927E-4,-.54E-6,0
SZ-21 MODULE,2025-246C,2026-06-15T16:41:15.002592,15.76287551,.00064925,41.4723,316.6164,340.9855,19.0747,0,U,66515,999,3350,.25046654E-3,.4052E-3,0
