{
  "version": 1,
  "fetchedAt": "2026-06-16T16:59:36.124Z",
  "source": "celestrak-gp",
  "counts": {
    "station": 25,
    "satellite": 400,
    "debris": 250
  },
  "objects": [
    {
      "id": "48274",
      "name": "CSS (TIANHE)",
      "displayName": "中国空间站 天宫（天和核心舱）",
      "noradId": 48274,
      "line1": "1 48274U 21035A   26167.08121934  .00020101  00000+0  23775-3 0  9996",
      "line2": "2 48274  41.4696 328.7320 0007464  68.7189 291.4446 15.60769173292998",
      "category": "station",
      "highlight": true,
      "operator": "中国载人航天"
    },
    {
      "id": "66515",
      "name": "SZ-21 MODULE",
      "noradId": 66515,
      "line1": "1 66515U 25246C   26166.69531253  .00040520  00000+0  25047-3 0  9998",
      "line2": "2 66515  41.4723 316.6164 0006492 340.9855  19.0747 15.76287551 33504",
      "category": "station"
    },
    {
      "id": "28932",
      "name": "H-2A R/B",
      "noradId": 28932,
      "line1": "1 28932U 06002B   26167.26355816  .00005588  00000+0  26985-3 0  9998",
      "line2": "2 28932  98.2561 323.0084 0049582 265.5373  94.0193 15.18050561109385",
      "category": "satellite"
    },
    {
      "id": "29228",
      "name": "RESURS-DK 1",
      "noradId": 29228,
      "line1": "1 29228U 06021A   26167.17601849  .00002045  00000+0  12094-3 0  9999",
      "line2": "2 29228  69.9341 342.1698 0006931 292.7954  67.2480 15.13215473102425",
      "category": "satellite"
    },
    {
      "id": "29507",
      "name": "CZ-4B R/B",
      "noradId": 29507,
      "line1": "1 29507U 06046C   26167.00023201  .00003652  00000+0  18206-3 0  9994",
      "line2": "2 29507  97.5450 211.6108 0031007 286.9796  72.8040 15.17776889 74957",
      "category": "satellite"
    },
    {
      "id": "31114",
      "name": "CZ-2C R/B",
      "noradId": 31114,
      "line1": "1 31114U 07010B   26167.28499317  .00000063  00000+0  47865-4 0  9995",
      "line2": "2 31114  98.4098 275.6800 0059077   8.7531 351.4662 14.20276032993713",
      "category": "satellite"
    },
    {
      "id": "31598",
      "name": "COSMO-SKYMED 1",
      "noradId": 31598,
      "line1": "1 31598U 07023A   26167.26612528  .00002152  00000+0  19175-3 0  9997",
      "line2": "2 31598  97.8841 359.1140 0001254  99.9971 260.1392 14.97095115 29651",
      "category": "satellite"
    },
    {
      "id": "31792",
      "name": "COSMOS 2428",
      "noradId": 31792,
      "line1": "1 31792U 07029A   26167.22334006 -.00000121  00000+0 -39497-4 0  9993",
      "line2": "2 31792  70.9370 356.5014 0007133 136.7476 223.4206 14.12928265978016",
      "category": "satellite"
    },
    {
      "id": "31793",
      "name": "SL-16 R/B",
      "noradId": 31793,
      "line1": "1 31793U 07029B   26167.21223109  .00000143  00000+0  98849-4 0  9992",
      "line2": "2 31793  70.9768 325.2777 0002304 261.8401 270.6376 14.14854787979304",
      "category": "satellite"
    },
    {
      "id": "33504",
      "name": "KORONAS-FOTON",
      "noradId": 33504,
      "line1": "1 33504U 09003A   26167.30164549  .00009056  00000+0  18631-3 0  9992",
      "line2": "2 33504  82.4282 173.1833 0011578 150.4858 209.7047 15.45707361960960",
      "category": "satellite"
    },
    {
      "id": "37731",
      "name": "CZ-2C R/B",
      "noradId": 37731,
      "line1": "1 37731U 11030B   26167.15384988  .00001100  00000+0  14390-3 0  9995",
      "line2": "2 37731  97.8655 122.5586 0053139  31.2689 341.5259 14.81469274804672",
      "category": "satellite"
    },
    {
      "id": "38341",
      "name": "H-2A R/B",
      "noradId": 38341,
      "line1": "1 38341U 12025E   26166.95276242  .00002973  00000+0  26821-3 0  9999",
      "line2": "2 38341  98.4829 141.9966 0043716 353.4258   6.6382 14.95714694762907",
      "category": "satellite"
    },
    {
      "id": "39358",
      "name": "SHIJIAN-16 (SJ-16)",
      "noradId": 39358,
      "line1": "1 39358U 13057A   26167.30101424  .00001085  00000+0  10801-3 0  9997",
      "line2": "2 39358  74.9726 358.3617 0016832 232.9456 127.0193 14.92606022686217",
      "category": "satellite"
    },
    {
      "id": "39679",
      "name": "SL-4 R/B",
      "noradId": 39679,
      "line1": "1 39679U 14021B   26166.83245194  .00008430  00000+0  17705-3 0  9996",
      "line2": "2 39679  51.6036 217.4086 0091305 101.0610 260.0660 15.41930073671403",
      "category": "satellite"
    },
    {
      "id": "39766",
      "name": "ALOS-2",
      "noradId": 39766,
      "line1": "1 39766U 14029A   26167.25994193  .00000947  00000+0  13364-3 0  9990",
      "line2": "2 39766  97.9225 264.4363 0001643  92.6131 267.5268 14.79467928651444",
      "category": "satellite"
    },
    {
      "id": "41038",
      "name": "YAOGAN-29",
      "noradId": 41038,
      "line1": "1 41038U 15069A   26167.30072759  .00000432  00000+0  59754-4 0  9994",
      "line2": "2 41038  98.0023 195.9320 0002637  56.1132 304.0332 14.83084373570496",
      "category": "satellite"
    },
    {
      "id": "41337",
      "name": "ASTRO-H (HITOMI)",
      "noradId": 41337,
      "line1": "1 41337U 16012A   26166.97696633  .00002131  00000+0  12043-3 0  9997",
      "line2": "2 41337  30.9996  82.0029 0009779 241.7566 118.2085 15.10506251567100",
      "category": "satellite"
    },
    {
      "id": "42758",
      "name": "HXMT (HUIYAN)",
      "noradId": 42758,
      "line1": "1 42758U 17034A   26167.34500789  .00002371  00000+0  12332-3 0  9995",
      "line2": "2 42758  43.0125 187.7306 0030496 141.6446 218.6578 15.18473601497534",
      "category": "satellite"
    },
    {
      "id": "43641",
      "name": "SAOCOM 1A",
      "noradId": 43641,
      "line1": "1 43641U 18076A   26167.32590728 -.00000210  00000+0 -19807-4 0  9991",
      "line2": "2 43641  97.8875 354.0868 0001566  79.9870 280.1520 14.82145731415976",
      "category": "satellite"
    },
    {
      "id": "43682",
      "name": "H-2A R/B",
      "noradId": 43682,
      "line1": "1 43682U 18084L   26167.28636963  .00016636  00000+0  34987-3 0  9994",
      "line2": "2 43682  98.8576  45.9796 0023609  43.6897 316.6210 15.45124982420988",
      "category": "satellite"
    },
    {
      "id": "46265",
      "name": "SAOCOM 1B",
      "noradId": 46265,
      "line1": "1 46265U 20059A   26167.28954645  .00000606  00000+0  82720-4 0  9998",
      "line2": "2 46265  97.8880 353.1460 0001624  85.3412 274.7986 14.82147385313354",
      "category": "satellite"
    },
    {
      "id": "48865",
      "name": "COSMOS 2550",
      "noradId": 48865,
      "line1": "1 48865U 21056A   26167.30680030  .00005190  00000+0  16352-3 0  9991",
      "line2": "2 48865  67.1433 102.5691 0008408 268.7874  91.2317 15.33822746278587",
      "category": "satellite"
    },
    {
      "id": "52794",
      "name": "CZ-2C R/B",
      "noradId": 52794,
      "line1": "1 52794U 22058K   26167.28244560  .00033377  00000+0  37208-3 0  9992",
      "line2": "2 52794  50.1832 168.2256 0032533 264.2394  95.4870 15.61797731225508",
      "category": "satellite"
    },
    {
      "id": "54039",
      "name": "CZ-2C R/B",
      "noradId": 54039,
      "line1": "1 54039U 22132E   26167.26095295  .00054204  00000+0  42190-3 0  9994",
      "line2": "2 54039  97.2897 174.2437 0016145  87.1204 273.1907 15.71408405205801",
      "category": "satellite"
    },
    {
      "id": "54149",
      "name": "GSLV R/B",
      "noradId": 54149,
      "line1": "1 54149U 22138AN  26167.31576027  .00002637  00000+0  22413-3 0  9994",
      "line2": "2 54149  87.3805 133.2768 0022739 146.5375 213.7299 14.97253720198685",
      "category": "satellite"
    },
    {
      "id": "57800",
      "name": "XRISM",
      "noradId": 57800,
      "line1": "1 57800U 23137A   26167.26672448  .00004297  00000+0  23547-3 0  9992",
      "line2": "2 57800  31.0033   5.5643 0007967 314.6443  45.3546 15.12459575152727",
      "category": "satellite"
    },
    {
      "id": "59588",
      "name": "ACS3",
      "noradId": 59588,
      "line1": "1 59588U 24077B   26167.27242169  .00017775  00000+0  13160-1 0  9998",
      "line2": "2 59588  97.1678  86.2645 0073640  64.3296 296.5453 13.93905607107911",
      "category": "satellite"
    },
    {
      "id": "66004",
      "name": "CZ-8A R/B",
      "noradId": 66004,
      "line1": "1 66004U 25231K   26166.93405279 -.00000054  00000+0  38927-4 0  9991",
      "line2": "2 66004  50.0057  44.6477 0116481 219.5938 139.6427 14.30154619 34761",
      "category": "satellite"
    }
  ]
}